{
  "type": "FeatureCollection",
  "features": [
    {
      "type": "Feature",
      "properties": {
        "norad_id": 42917,
        "name": "QZS-3 (QZSS/PRN 199)",
        "group": "gnss",
        "lat": -0.0015325728943265248,
        "lon": 140.3006648814312,
        "alt_km": 35793.33784335669,
        "timestamp": "2025-12-19T18:58:41.831952+00:00",
        "meta_object_name": "QZS-3 (QZSS/PRN 199)",
        "meta_object_id": "2017-048A",
        "meta_epoch": "2025-12-19T07:01:11.307072",
        "meta_mean_motion": 1.00266505,
        "meta_eccentricity": 0.00017935,
        "meta_inclination": 0.0248,
        "meta_ra_of_asc_node": 179.8453,
        "meta_arg_of_pericenter": 99.2034,
        "meta_mean_anomaly": 41.4174,
        "meta_ephemeris_type": 0,
        "meta_classification_type": "U",
        "meta_norad_cat_id": 42917,
        "meta_element_set_no": 999,
        "meta_rev_at_epoch": 3045,
        "meta_bstar": 0,
        "meta_mean_motion_dot": 0,
        "meta_mean_motion_ddot": 0,
        "tle_line1": "1 42917U 17048A   25353.29249198  .00000000  00000+0  00000+0 0  9993",
        "tle_line2": "2 42917   0.0248 179.8453 0001793  99.2034  41.4174  1.00266505 30451"
      },
      "geometry": {
        "type": "Point",
        "coordinates": [
          140.3006648814312,
          -0.0015325728943265248
        ]
      }
    },
    {
      "type": "Feature",
      "properties": {
        "norad_id": 42939,
        "name": "COSMOS 2522 (752)",
        "group": "gnss",
        "lat": -49.49494070561862,
        "lon": 163.2665625333935,
        "alt_km": 19132.27491089848,
        "timestamp": "2025-12-19T18:58:41.831964+00:00",
        "meta_object_name": "COSMOS 2522 (752)",
        "meta_object_id": "2017-055A",
        "meta_epoch": "2025-12-18T22:15:40.453056",
        "meta_mean_motion": 2.13102086,
        "meta_eccentricity": 0.00063844,
        "meta_inclination": 64.0762,
        "meta_ra_of_asc_node": 198.0182,
        "meta_arg_of_pericenter": 224.0179,
        "meta_mean_anomaly": 136.0111,
        "meta_ephemeris_type": 0,
        "meta_classification_type": "U",
        "meta_norad_cat_id": 42939,
        "meta_element_set_no": 999,
        "meta_rev_at_epoch": 6413,
        "meta_bstar": 0,
        "meta_mean_motion_dot": 1.07e-06,
        "meta_mean_motion_ddot": 0,
        "tle_line1": "1 42939U 17055A   25352.92755154  .00000107  00000+0  00000+0 0  9996",
        "tle_line2": "2 42939  64.0762 198.0182 0006384 224.0179 136.0111  2.13102086 64139"
      },
      "geometry": {
        "type": "Point",
        "coordinates": [
          163.2665625333935,
          -49.49494070561862
        ]
      }
    },
    {
      "type": "Feature",
      "properties": {
        "norad_id": 42965,
        "name": "QZS-4 (QZSS/PRN 195)",
        "group": "gnss",
        "lat": 15.577879944143547,
        "lon": 146.50467981383693,
        "alt_km": 37005.68761336665,
        "timestamp": "2025-12-19T18:58:41.831976+00:00",
        "meta_object_name": "QZS-4 (QZSS/PRN 195)",
        "meta_object_id": "2017-062A",
        "meta_epoch": "2025-12-18T12:29:45.417120",
        "meta_mean_motion": 1.00251537,
        "meta_eccentricity": 0.07515287,
        "meta_inclination": 40.2229,
        "meta_ra_of_asc_node": 345.7974,
        "meta_arg_of_pericenter": 271.6693,
        "meta_mean_anomaly": 153.2789,
        "meta_ephemeris_type": 0,
        "meta_classification_type": "U",
        "meta_norad_cat_id": 42965,
        "meta_element_set_no": 999,
        "meta_rev_at_epoch": 2999,
        "meta_bstar": 0,
        "meta_mean_motion_dot": -3.37e-06,
        "meta_mean_motion_ddot": 0,
        "tle_line1": "1 42965U 17062A   25352.52066455 -.00000337  00000+0  00000+0 0  9994",
        "tle_line2": "2 42965  40.2229 345.7974 0751528 271.6693 153.2789  1.00251537 29996"
      },
      "geometry": {
        "type": "Point",
        "coordinates": [
          146.50467981383693,
          15.577879944143547
        ]
      }
    },
    {
      "type": "Feature",
      "properties": {
        "norad_id": 43001,
        "name": "BEIDOU-3 M1 (C19)",
        "group": "gnss",
        "lat": 0.4189782808193276,
        "lon": 69.29375999909054,
        "alt_km": 21514.2910115924,
        "timestamp": "2025-12-19T18:58:41.831988+00:00",
        "meta_object_name": "BEIDOU-3 M1 (C19)",
        "meta_object_id": "2017-069A",
        "meta_epoch": "2025-12-18T04:17:57.582816",
        "meta_mean_motion": 1.86231385,
        "meta_eccentricity": 0.00094787,
        "meta_inclination": 56.5315,
        "meta_ra_of_asc_node": 69.054,
        "meta_arg_of_pericenter": 302.4467,
        "meta_mean_anomaly": 57.4905,
        "meta_ephemeris_type": 0,
        "meta_classification_type": "U",
        "meta_norad_cat_id": 43001,
        "meta_element_set_no": 999,
        "meta_rev_at_epoch": 5523,
        "meta_bstar": 0,
        "meta_mean_motion_dot": -6.5e-07,
        "meta_mean_motion_ddot": 0,
        "tle_line1": "1 43001U 17069A   25352.17913869 -.00000065  00000+0  00000+0 0  9992",
        "tle_line2": "2 43001  56.5315  69.0540 0009478 302.4467  57.4905  1.86231385 55235"
      },
      "geometry": {
        "type": "Point",
        "coordinates": [
          69.29375999909054,
          0.4189782808193276
        ]
      }
    },
    {
      "type": "Feature",
      "properties": {
        "norad_id": 43002,
        "name": "BEIDOU-3 M2 (C20)",
        "group": "gnss",
        "lat": 33.834958749392705,
        "lon": 95.3309425254322,
        "alt_km": 21518.184548712394,
        "timestamp": "2025-12-19T18:58:41.831999+00:00",
        "meta_object_name": "BEIDOU-3 M2 (C20)",
        "meta_object_id": "2017-069B",
        "meta_epoch": "2025-12-19T04:35:39.539904",
        "meta_mean_motion": 1.86231009,
        "meta_eccentricity": 0.00065189,
        "meta_inclination": 56.532,
        "meta_ra_of_asc_node": 69.0565,
        "meta_arg_of_pericenter": 330.2695,
        "meta_mean_anomaly": 29.7276,
        "meta_ephemeris_type": 0,
        "meta_classification_type": "U",
        "meta_norad_cat_id": 43002,
        "meta_element_set_no": 999,
        "meta_rev_at_epoch": 5524,
        "meta_bstar": 0,
        "meta_mean_motion_dot": -5.5e-07,
        "meta_mean_motion_ddot": 0,
        "tle_line1": "1 43002U 17069B   25353.19142986 -.00000055  00000+0  00000+0 0  9999",
        "tle_line2": "2 43002  56.5320  69.0565 0006518 330.2695  29.7276  1.86231009 55240"
      },
      "geometry": {
        "type": "Point",
        "coordinates": [
          95.3309425254322,
          33.834958749392705
        ]
      }
    },
    {
      "type": "Feature",
      "properties": {
        "norad_id": 43055,
        "name": "GSAT0215 (GALILEO 19)",
        "group": "gnss",
        "lat": 12.138602708147696,
        "lon": 37.83678808922442,
        "alt_km": 23224.4850533624,
        "timestamp": "2025-12-19T18:58:41.832013+00:00",
        "meta_object_name": "GSAT0215 (GALILEO 19)",
        "meta_object_id": "2017-079A",
        "meta_epoch": "2025-12-18T08:21:56.206080",
        "meta_mean_motion": 1.70474068,
        "meta_eccentricity": 0.00012335,
        "meta_inclination": 55.1282,
        "meta_ra_of_asc_node": 226.4832,
        "meta_arg_of_pericenter": 345.8587,
        "meta_mean_anomaly": 14.2435,
        "meta_ephemeris_type": 0,
        "meta_classification_type": "U",
        "meta_norad_cat_id": 43055,
        "meta_element_set_no": 999,
        "meta_rev_at_epoch": 4990,
        "meta_bstar": 0,
        "meta_mean_motion_dot": 6.2e-07,
        "meta_mean_motion_ddot": 0,
        "tle_line1": "1 43055U 17079A   25352.34856720  .00000062  00000+0  00000+0 0  9999",
        "tle_line2": "2 43055  55.1282 226.4832 0001233 345.8587  14.2435  1.70474068 49906"
      },
      "geometry": {
        "type": "Point",
        "coordinates": [
          37.83678808922442,
          12.138602708147696
        ]
      }
    },
    {
      "type": "Feature",
      "properties": {
        "norad_id": 43056,
        "name": "GSAT0216 (GALILEO 20)",
        "group": "gnss",
        "lat": -11.175025340616534,
        "lon": -141.45569104084166,
        "alt_km": 23217.314340034744,
        "timestamp": "2025-12-19T18:58:41.832026+00:00",
        "meta_object_name": "GSAT0216 (GALILEO 20)",
        "meta_object_id": "2017-079B",
        "meta_epoch": "2025-12-16T21:07:19.515072",
        "meta_mean_motion": 1.70474167,
        "meta_eccentricity": 0.00024195,
        "meta_inclination": 55.129,
        "meta_ra_of_asc_node": 226.5236,
        "meta_arg_of_pericenter": 322.2527,
        "meta_mean_anomaly": 37.829,
        "meta_ephemeris_type": 0,
        "meta_classification_type": "U",
        "meta_norad_cat_id": 43056,
        "meta_element_set_no": 999,
        "meta_rev_at_epoch": 4989,
        "meta_bstar": 0,
        "meta_mean_motion_dot": 5.3e-07,
        "meta_mean_motion_ddot": 0,
        "tle_line1": "1 43056U 17079B   25350.88008698  .00000053  00000+0  00000+0 0  9990",
        "tle_line2": "2 43056  55.1290 226.5236 0002419 322.2527  37.8290  1.70474167 49893"
      },
      "geometry": {
        "type": "Point",
        "coordinates": [
          -141.45569104084166,
          -11.175025340616534
        ]
      }
    }
  ]
}